OBJECT_NAME,OBJECT_ID,EPOCH,MEAN_MOTION,ECCENTRICITY,INCLINATION,RA_OF_ASC_NODE,ARG_OF_PERICENTER,MEAN_ANOMALY,EPHEMERIS_TYPE,CLASSIFICATION_TYPE,NORAD_CAT_ID,ELEMENT_SET_NO,REV_AT_EPOCH,BSTAR,MEAN_MOTION_DOT,MEAN_MOTION_DDOT
STARLINK-2153,2021-024AJ,2025-03-10T11:54:47.116224,15.06372947,.000134,53.0526,151.5454,110.4043,249.7090,0,U,48009,999,21989,.12304E-2,.18079E-3,0
STARLINK-2226,2021-024AK,2025-03-10T13:48:54.521856,15.06379261,.0001458,53.0535,171.1903,100.2117,259.9037,0,U,48010,999,21962,-.4098E-4,-.891E-5,0
STARLINK-2283,2021-024AP,2025-03-10T22:00:01.999584,15.46989399,.0001132,53.0522,93.9743,84.7854,108.7414,0,U,48014,999,587,.19345E-1,.1081325E-1,0
STARLINK-2284,2021-024AR,2025-03-10T22:00:01.999584,15.52956197,.0006905,53.0410,57.2580,344.7996,318.9326,0,U,48016,999,590,.15254E-2,.97448E-3,0
STARLINK-2282,2021-024AT,2025-03-10T10:04:21.265248,15.29389731,.0005922,53.0347,141.9752,314.6992,45.3524,0,U,48018,999,22008,.16239E-2,.46871E-3,0
STARLINK-2285,2021-024AU,2025-03-10T11:20:56.287680,15.06368606,.0001388,53.0537,146.6529,73.0089,287.1052,0,U,48019,999,21995,.81739E-3,.11904E-3,0
STARLINK-2301,2021-024AW,2025-03-10T09:28:07.473216,15.06389614,.0001787,53.0537,106.9935,95.2155,264.9037,0,U,48021,999,22051,.93748E-5,-.142E-5,0
STARLINK-2298,2021-024AX,2025-03-10T13:20:25.635264,15.06377129,.0001318,53.0528,166.5584,95.9416,264.1723,0,U,48022,999,21974,.11337E-3,.1407E-4,0
STARLINK-2292,2021-024AY,2025-03-10T13:04:27.417792,15.06380041,.0001439,53.0524,166.3243,90.6314,269.4840,0,U,48023,999,21974,-.88534E-4,-.1599E-4,0
STARLINK-2264,2021-024BD,2025-03-10T22:00:01.999584,15.33919086,.000126,53.0572,97.1035,77.7378,278.3287,0,U,48028,999,584,.28302E-1,.1024458E-1,0
STARLINK-2299,2021-024BE,2025-03-10T12:32:36.776832,15.06393709,.0001163,53.0525,166.4282,101.1183,258.9937,0,U,48029,999,21974,.12322E-2,.18117E-3,0
STARLINK-2286,2021-024BJ,2025-03-10T22:00:01.999584,15.63891189,.0001318,53.0492,158.3052,79.6986,313.2128,0,U,48033,999,583,.74663E-2,.775199E-2,0
STARLINK-2288,2021-024BK,2025-03-10T22:00:01.999584,15.38709514,.0001164,53.0515,161.1964,65.0589,211.1441,0,U,48034,999,583,.13501E-1,.564653E-2,0
STARLINK-2295,2021-024BM,2025-03-10T22:00:01.999584,15.74788307,.0001755,53.0501,128.6793,69.8836,128.5951,0,U,48036,999,599,.22624E-2,.354114E-2,0
ONEWEB-0115,2021-025A,2025-03-10T20:43:31.758528,13.13438270,.0001955,87.8904,52.3091,86.6033,273.5320,0,U,48042,999,19277,.8112E-3,.309E-5,0
ONEWEB-0152,2021-025B,2025-03-10T21:02:51.580032,13.13348641,.0002035,87.8909,52.3144,89.2827,270.8535,0,U,48043,999,19273,.21168E-3,.9E-6,0
ONEWEB-0153,2021-025C,2025-03-10T20:31:07.934016,13.13329054,.0001834,87.8910,52.3143,84.2211,275.9127,0,U,48044,999,19272,.84177E-3,.32E-5,0
ONEWEB-0154,2021-025D,2025-03-10T20:26:18.718656,13.13353672,.0001978,87.8907,52.3179,85.2747,274.8608,0,U,48045,999,19268,.85754E-3,.325E-5,0
ONEWEB-0116,2021-025E,2025-03-10T21:22:48.239040,13.13587531,.0002051,87.8912,52.2864,87.6516,272.4848,0,U,48046,999,19283,-.62831E-3,-.217E-5,0
ONEWEB-0150,2021-025F,2025-03-10T20:48:22.027968,13.13414552,.0001704,87.8904,52.2950,83.4830,276.6493,0,U,48047,999,19272,.14065E-2,.526E-5,0
ONEWEB-0107,2021-025G,2025-03-10T20:50:47.441760,13.13410391,.0001731,87.8904,52.2925,75.1605,284.9716,0,U,48048,999,19270,.76838E-3,.293E-5,0
ONEWEB-0101,2021-025H,2025-03-10T21:46:59.028096,13.13483666,.0001907,87.8911,52.3160,81.2907,278.8438,0,U,48049,999,19268,-.20188E-2,-.725E-5,0
ONEWEB-0113,2021-025J,2025-03-10T21:05:20.023008,13.13986670,.0001941,87.8912,52.2988,87.9839,272.1513,0,U,48050,999,19276,.14524E-3,.66E-6,0
ONEWEB-0112,2021-025K,2025-03-10T20:58:00.213312,13.13375249,.0001831,87.8904,52.2886,85.7724,274.3614,0,U,48051,999,19277,.44123E-3,.174E-5,0
ONEWEB-0156,2021-025L,2025-03-10T21:10:23.242080,13.13480345,.0001737,87.8911,52.2939,83.0159,277.1168,0,U,48052,999,19275,-.16633E-3,-.48E-6,0
ONEWEB-0161,2021-025M,2025-03-10T20:33:32.472576,13.13317712,.0001779,87.8912,52.3139,80.6723,279.4607,0,U,48053,999,19268,.96185E-3,.363E-5,0
ONEWEB-0158,2021-025N,2025-03-10T21:25:13.191456,13.13576918,.0001787,87.8908,52.2893,89.1383,270.9951,0,U,48054,999,19281,-.69707E-3,-.242E-5,0
ONEWEB-0157,2021-025P,2025-03-10T16:32:23.597664,13.13416936,.0001645,87.8906,52.3422,72.1600,287.9708,0,U,48055,999,19272,.41768E-3,.165E-5,0
ONEWEB-0162,2021-025Q,2025-03-10T21:09:03.432672,13.13405298,.0001827,87.8907,52.2960,85.6626,274.4712,0,U,48056,999,19272,.17244E-4,.19E-6,0
ONEWEB-0155,2021-025R,2025-03-10T21:37:16.398336,13.13523437,.0002001,87.8907,52.3061,79.9889,280.1466,0,U,48057,999,19286,-.76577E-3,-.267E-5,0
ONEWEB-0149,2021-025S,2025-03-10T20:19:02.541216,13.13383298,.0001707,87.8908,52.3125,90.8236,269.3089,0,U,48058,999,19266,.58127E-3,.225E-5,0
ONEWEB-0148,2021-025T,2025-03-10T21:15:32.475456,13.13617368,.0001168,87.8911,52.3239,92.5773,267.5490,0,U,48059,999,19279,-.47225E-3,-.16E-5,0
ONEWEB-0160,2021-025U,2025-03-10T21:39:43.350912,13.13511705,.000259,87.8910,52.3172,98.6254,261.5168,0,U,48060,999,19274,-.62242E-3,-.215E-5,0
ONEWEB-0163,2021-025V,2025-03-10T21:17:58.331616,13.13608238,.0001737,87.8908,52.3047,77.0643,283.0680,0,U,48061,999,19286,-.12685E-3,-.34E-6,0
ONEWEB-0159,2021-025W,2025-03-10T21:05:19.571136,13.13327716,.0004284,87.8907,52.2881,81.2030,278.9584,0,U,48062,999,19278,-.388E-2,-.1401E-4,0
ONEWEB-0164,2021-025X,2025-03-10T20:38:42.006624,13.13459772,.0002025,87.8908,52.3026,83.5793,276.5567,0,U,48063,999,19276,.87852E-3,.334E-5,0
ONEWEB-0167,2021-025Y,2025-03-10T21:19:09.661728,13.13603752,.0002038,87.8917,52.3159,58.3790,301.7537,0,U,48064,999,19275,-.85299E-3,-.299E-5,0
ONEWEB-0166,2021-025Z,2025-03-10T21:51:48.807648,13.13461042,.0001712,87.8904,52.2808,87.7425,272.3900,0,U,48065,999,19283,-.21847E-3,-.67E-6,0
ONEWEB-0151,2021-025AA,2025-03-10T21:54:13.923360,13.13450508,.0002022,87.8908,52.3005,81.6715,278.4643,0,U,48066,999,19277,-.11055E-3,-.28E-6,0
ONEWEB-0170,2021-025AB,2025-03-10T20:16:37.340832,13.13393901,.0002431,87.8908,52.3185,84.6383,275.5023,0,U,48067,999,19272,.62748E-3,.242E-5,0
ONEWEB-0168,2021-025AC,2025-03-10T21:44:31.688448,13.13490928,.0001847,87.8909,52.2835,83.3602,276.7737,0,U,48068,999,19274,-.12702E-2,-.451E-5,0
ONEWEB-0173,2021-025AD,2025-03-10T21:32:26.893536,13.13544101,.0001899,87.8909,52.2940,71.1980,288.9355,0,U,48069,999,19298,-.6015E-3,-.207E-5,0
ONEWEB-0171,2021-025AE,2025-03-10T20:36:15.667488,13.13471055,.0001978,87.8911,52.3391,82.4838,277.6516,0,U,48070,999,19279,.81901E-3,.312E-5,0
ONEWEB-0172,2021-025AF,2025-03-10T21:56:38.162976,13.13441294,.0001966,87.8911,52.2942,79.1928,280.9423,0,U,48071,999,19369,.44948E-4,.29E-6,0
ONEWEB-0174,2021-025AG,2025-03-10T21:30:03.026304,13.13553972,.0001757,87.8910,52.3117,84.7163,275.4167,0,U,48072,999,19301,-.61451E-3,-.212E-5,0
ONEWEB-0175,2021-025AH,2025-03-10T20:23:52.862496,13.13361390,.0002237,87.8904,52.2942,82.2879,277.8504,0,U,48073,999,19266,.72633E-3,.278E-5,0
ONEWEB-0177,2021-025AJ,2025-03-10T20:41:05.578368,13.13446852,.0001703,87.8906,52.3037,77.7398,282.3922,0,U,48074,999,19285,.91111E-3,.345E-5,0
ONEWEB-0178,2021-025AK,2025-03-10T21:07:54.941664,13.13332511,.0001888,87.8918,52.3366,75.6135,284.5204,0,U,48075,999,19290,-.55425E-4,-.7E-7,0
ONEWEB-0108,2021-025AL,2025-03-10T16:29:57.779520,13.13429623,.0001836,87.8905,52.3342,92.2711,267.8628,0,U,48076,999,19280,.15494E-3,.69E-6,0
ONEWEB-0169,2021-025AM,2025-03-10T20:55:35.825952,13.13382527,.0001868,87.8907,52.3146,92.7973,267.3370,0,U,48077,999,19148,.64693E-3,.249E-5,0
GAOFEN-12 02,2021-026A,2025-03-10T21:38:31.369344,14.80213827,.0000901,97.9711,65.5266,318.1024,42.0119,0,U,48079,999,21321,.14778E-3,.1071E-4,0
STARLINK-2404,2021-027B,2025-03-10T12:07:25.258944,15.06388801,.0001978,53.0544,356.7073,84.6781,275.4433,0,U,48093,999,21766,.1698E-3,.2248E-4,0
STARLINK-2412,2021-027C,2025-03-10T12:32:35.409120,15.06384266,.0001495,53.0553,6.4271,83.4117,276.7042,0,U,48094,999,21753,.9487E-3,.13871E-3,0
STARLINK-2414,2021-027D,2025-03-10T12:43:12.377568,15.06395045,.000161,53.0557,6.3938,90.2847,269.8326,0,U,48095,999,21754,.37154E-3,.5256E-4,0
STARLINK-2417,2021-027E,2025-03-10T05:43:53.591808,15.06397871,.0001658,53.0560,7.7004,109.8458,250.2710,0,U,48096,999,21748,.48163E-4,.436E-5,0
STARLINK-2418,2021-027F,2025-03-10T17:59:01.270464,15.06397868,.0001288,53.0547,345.4094,91.7525,268.3611,0,U,48097,999,21784,.14567E-2,.21481E-3,0
STARLINK-2421,2021-027G,2025-03-10T04:41:31.317504,15.06401014,.0001678,53.0552,357.8945,96.9321,263.1859,0,U,48098,999,21761,.16291E-2,.24068E-3,0
STARLINK-2428,2021-027H,2025-03-10T20:19:41.240640,15.06372249,.0002402,53.0556,4.9715,75.2933,284.8322,0,U,48099,999,21757,.56988E-3,.8211E-4,0
STARLINK-2430,2021-027J,2025-03-10T03:28:33.558240,15.06409938,.0001427,53.0556,348.1250,94.4983,265.6169,0,U,48100,999,21775,.4544E-3,.6495E-4,0
STARLINK-2436,2021-027K,2025-03-10T19:27:57.679200,15.06380993,.0001503,53.0535,355.3337,83.6158,276.5002,0,U,48101,999,21771,-.37582E-4,-.841E-5,0
STARLINK-2437,2021-027L,2025-03-10T21:36:38.653632,15.06395388,.0001589,53.0555,344.7294,80.2758,279.8410,0,U,48102,999,21786,.37176E-3,.5259E-4,0
STARLINK-2439,2021-027N,2025-03-10T18:54:05.492448,15.06391645,.0001485,53.0569,350.2337,74.1993,285.9159,0,U,48104,999,21778,.47743E-3,.6835E-4,0
STARLINK-2440,2021-027P,2025-03-10T21:27:20.800800,15.06427881,.0001566,53.0545,294.7592,93.2193,266.8976,0,U,48105,999,21856,.5542E-3,.7989E-4,0
STARLINK-2442,2021-027Q,2025-03-10T17:53:43.008288,15.06387145,.0001613,53.0562,345.4359,100.9565,259.1605,0,U,48106,999,21784,.72328E-3,.10504E-3,0
STARLINK-2443,2021-027R,2025-03-10T18:14:57.055776,15.06396030,.0001957,53.0579,345.3560,103.1480,256.9727,0,U,48107,999,21784,.96196E-3,.14074E-3,0
STARLINK-2447,2021-027U,2025-03-10T22:00:01.999584,15.85457734,.0002608,53.0489,331.8945,197.7389,175.3336,0,U,48110,999,21765,.1204E-2,.304824E-2,0
